{
  "type": "FeatureCollection",
  "features": [
    {
      "type": "Feature",
      "properties": {
        "norad_id": 34846,
        "name": "COSMOS 2251 DEB",
        "group": "cosmos-2251-debris",
        "lat": -47.60411089726712,
        "lon": 104.72817847750345,
        "alt_km": 745.417240919769,
        "timestamp": "2025-12-10T05:46:14.221961+00:00",
        "meta_object_name": "COSMOS 2251 DEB",
        "meta_object_id": "1993-036ABQ",
        "meta_epoch": "2025-12-08T22:50:43.848960",
        "meta_mean_motion": 14.47175679,
        "meta_eccentricity": 0.00260293,
        "meta_inclination": 74.031,
        "meta_ra_of_asc_node": 268.8582,
        "meta_arg_of_pericenter": 335.7831,
        "meta_mean_anomaly": 24.2102,
        "meta_ephemeris_type": 0,
        "meta_classification_type": "U",
        "meta_norad_cat_id": 34846,
        "meta_element_set_no": 999,
        "meta_rev_at_epoch": 87349,
        "meta_bstar": 0.0012224072,
        "meta_mean_motion_dot": 4.457e-05,
        "meta_mean_motion_ddot": 0,
        "tle_line1": "1 34846U 93036ABQ 25342.95189640  .00004457  00000+0  12224-2 0  9996",
        "tle_line2": "2 34846  74.0310 268.8582 0026029 335.7831  24.2102 14.47175679873493"
      },
      "geometry": {
        "type": "Point",
        "coordinates": [
          104.72817847750345,
          -47.60411089726712
        ]
      }
    },
    {
      "type": "Feature",
      "properties": {
        "norad_id": 34852,
        "name": "COSMOS 2251 DEB",
        "group": "cosmos-2251-debris",
        "lat": 26.94577078667871,
        "lon": -84.06310338805129,
        "alt_km": 756.0588824184033,
        "timestamp": "2025-12-10T05:46:14.221971+00:00",
        "meta_object_name": "COSMOS 2251 DEB",
        "meta_object_id": "1993-036ABW",
        "meta_epoch": "2025-12-09T12:55:56.817120",
        "meta_mean_motion": 14.37001055,
        "meta_eccentricity": 0.0016022,
        "meta_inclination": 74.0329,
        "meta_ra_of_asc_node": 268.8581,
        "meta_arg_of_pericenter": 12.6756,
        "meta_mean_anomaly": 347.4797,
        "meta_ephemeris_type": 0,
        "meta_classification_type": "U",
        "meta_norad_cat_id": 34852,
        "meta_element_set_no": 999,
        "meta_rev_at_epoch": 87488,
        "meta_bstar": 0.00021796,
        "meta_mean_motion_dot": 6.21e-06,
        "meta_mean_motion_ddot": 0,
        "tle_line1": "1 34852U 93036ABW 25343.53885205  .00000621  00000+0  21796-3 0  9992",
        "tle_line2": "2 34852  74.0329 268.8581 0016022  12.6756 347.4797 14.37001055874887"
      },
      "geometry": {
        "type": "Point",
        "coordinates": [
          -84.06310338805129,
          26.94577078667871
        ]
      }
    },
    {
      "type": "Feature",
      "properties": {
        "norad_id": 34854,
        "name": "COSMOS 2251 DEB",
        "group": "cosmos-2251-debris",
        "lat": -59.74995504811477,
        "lon": 134.0693748511424,
        "alt_km": 603.3530976730017,
        "timestamp": "2025-12-10T05:46:14.221981+00:00",
        "meta_object_name": "COSMOS 2251 DEB",
        "meta_object_id": "1993-036ABY",
        "meta_epoch": "2025-12-09T18:40:30.965088",
        "meta_mean_motion": 14.76581038,
        "meta_eccentricity": 0.0066169,
        "meta_inclination": 74.0286,
        "meta_ra_of_asc_node": 164.3876,
        "meta_arg_of_pericenter": 276.6411,
        "meta_mean_anomaly": 82.7235,
        "meta_ephemeris_type": 0,
        "meta_classification_type": "U",
        "meta_norad_cat_id": 34854,
        "meta_element_set_no": 999,
        "meta_rev_at_epoch": 71838,
        "meta_bstar": 0.0010468,
        "meta_mean_motion_dot": 7.547e-05,
        "meta_mean_motion_ddot": 0,
        "tle_line1": "1 34854U 93036ABY 25343.77813617  .00007547  00000+0  10468-2 0  9995",
        "tle_line2": "2 34854  74.0286 164.3876 0066169 276.6411  82.7235 14.76581038718380"
      },
      "geometry": {
        "type": "Point",
        "coordinates": [
          134.0693748511424,
          -59.74995504811477
        ]
      }
    },
    {
      "type": "Feature",
      "properties": {
        "norad_id": 34856,
        "name": "COSMOS 2251 DEB",
        "group": "cosmos-2251-debris",
        "lat": 67.92146070314823,
        "lon": -135.0417383855783,
        "alt_km": 554.3490964265129,
        "timestamp": "2025-12-10T05:46:14.221991+00:00",
        "meta_object_name": "COSMOS 2251 DEB",
        "meta_object_id": "1993-036ACA",
        "meta_epoch": "2025-12-09T08:49:27.914880",
        "meta_mean_motion": 15.05764705,
        "meta_eccentricity": 0.00333361,
        "meta_inclination": 73.9975,
        "meta_ra_of_asc_node": 91.7859,
        "meta_arg_of_pericenter": 229.9156,
        "meta_mean_anomaly": 186.6927,
        "meta_ephemeris_type": 0,
        "meta_classification_type": "U",
        "meta_norad_cat_id": 34856,
        "meta_element_set_no": 999,
        "meta_rev_at_epoch": 89061,
        "meta_bstar": 0.0025921632,
        "meta_mean_motion_dot": 0.00038187,
        "meta_mean_motion_ddot": 0,
        "tle_line1": "1 34856U 93036ACA 25343.36768420  .00038187  00000+0  25922-2 0  9998",
        "tle_line2": "2 34856  73.9975  91.7859 0033336 229.9156 186.6927 15.05764705890612"
      },
      "geometry": {
        "type": "Point",
        "coordinates": [
          -135.0417383855783,
          67.92146070314823
        ]
      }
    },
    {
      "type": "Feature",
      "properties": {
        "norad_id": 34857,
        "name": "COSMOS 2251 DEB",
        "group": "cosmos-2251-debris",
        "lat": 1.6331999584471906,
        "lon": -68.87168463874627,
        "alt_km": 674.5615123195093,
        "timestamp": "2025-12-10T05:46:14.222001+00:00",
        "meta_object_name": "COSMOS 2251 DEB",
        "meta_object_id": "1993-036ACB",
        "meta_epoch": "2025-12-09T19:48:39.565152",
        "meta_mean_motion": 14.58840936,
        "meta_eccentricity": 0.0065957,
        "meta_inclination": 74.0156,
        "meta_ra_of_asc_node": 112.3877,
        "meta_arg_of_pericenter": 237.3653,
        "meta_mean_anomaly": 282.9219,
        "meta_ephemeris_type": 0,
        "meta_classification_type": "U",
        "meta_norad_cat_id": 34857,
        "meta_element_set_no": 999,
        "meta_rev_at_epoch": 87858,
        "meta_bstar": 0.0019859,
        "meta_mean_motion_dot": 9.559e-05,
        "meta_mean_motion_ddot": 0,
        "tle_line1": "1 34857U 93036ACB 25343.82545793  .00009559  00000+0  19859-2 0  9999",
        "tle_line2": "2 34857  74.0156 112.3877 0065957 237.3653 282.9219 14.58840936878589"
      },
      "geometry": {
        "type": "Point",
        "coordinates": [
          -68.87168463874627,
          1.6331999584471906
        ]
      }
    },
    {
      "type": "Feature",
      "properties": {
        "norad_id": 34859,
        "name": "COSMOS 2251 DEB",
        "group": "cosmos-2251-debris",
        "lat": -7.966386028082119,
        "lon": -17.43843705276722,
        "alt_km": 525.6977234655233,
        "timestamp": "2025-12-10T05:46:14.222011+00:00",
        "meta_object_name": "COSMOS 2251 DEB",
        "meta_object_id": "1993-036ACD",
        "meta_epoch": "2025-12-09T11:20:30.954336",
        "meta_mean_motion": 15.13853053,
        "meta_eccentricity": 0.00030012,
        "meta_inclination": 74.0301,
        "meta_ra_of_asc_node": 346.4528,
        "meta_arg_of_pericenter": 330.2241,
        "meta_mean_anomaly": 158.4076,
        "meta_ephemeris_type": 0,
        "meta_classification_type": "U",
        "meta_norad_cat_id": 34859,
        "meta_element_set_no": 999,
        "meta_rev_at_epoch": 88309,
        "meta_bstar": 0.006295896,
        "meta_mean_motion_dot": 0.00115691,
        "meta_mean_motion_ddot": 0,
        "tle_line1": "1 34859U 93036ACD 25343.47258049  .00115691  00000+0  62959-2 0  9991",
        "tle_line2": "2 34859  74.0301 346.4528 0003001 330.2241 158.4076 15.13853053883090"
      },
      "geometry": {
        "type": "Point",
        "coordinates": [
          -17.43843705276722,
          -7.966386028082119
        ]
      }
    },
    {
      "type": "Feature",
      "properties": {
        "norad_id": 34861,
        "name": "COSMOS 2251 DEB",
        "group": "cosmos-2251-debris",
        "lat": 5.619436753296618,
        "lon": 57.57202926067559,
        "alt_km": 558.7050578633989,
        "timestamp": "2025-12-10T05:46:14.222021+00:00",
        "meta_object_name": "COSMOS 2251 DEB",
        "meta_object_id": "1993-036ACF",
        "meta_epoch": "2025-12-09T16:02:04.030944",
        "meta_mean_motion": 15.02261896,
        "meta_eccentricity": 0.0006601,
        "meta_inclination": 74.0189,
        "meta_ra_of_asc_node": 57.1242,
        "meta_arg_of_pericenter": 56.5774,
        "meta_mean_anomaly": 95.4156,
        "meta_ephemeris_type": 0,
        "meta_classification_type": "U",
        "meta_norad_cat_id": 34861,
        "meta_element_set_no": 999,
        "meta_rev_at_epoch": 88046,
        "meta_bstar": 0.0032532,
        "meta_mean_motion_dot": 0.00043186,
        "meta_mean_motion_ddot": 0,
        "tle_line1": "1 34861U 93036ACF 25343.66810221  .00043186  00000+0  32532-2 0  9994",
        "tle_line2": "2 34861  74.0189  57.1242 0006601  56.5774  95.4156 15.02261896880467"
      },
      "geometry": {
        "type": "Point",
        "coordinates": [
          57.57202926067559,
          5.619436753296618
        ]
      }
    }
  ]
}